{
    "links": {
        "self": "http://www.neowsapp.com/rest/v1/neo/3781302?api_key=iIulBulltgU6a56xZRHN4H3l9WmuAYTsLGpBGhQ2"
    },
    "id": "3781302",
    "neo_reference_id": "3781302",
    "name": "(2017 QZ34)",
    "designation": "2017 QZ34",
    "nasa_jpl_url": "http://ssd.jpl.nasa.gov/sbdb.cgi?sstr=3781302",
    "absolute_magnitude_h": 25.6,
    "estimated_diameter": {
        "kilometers": {
            "estimated_diameter_min": 0.0201629919,
            "estimated_diameter_max": 0.0450858206
        },
        "meters": {
            "estimated_diameter_min": 20.1629919443,
            "estimated_diameter_max": 45.0858206172
        },
        "miles": {
            "estimated_diameter_min": 0.0125286985,
            "estimated_diameter_max": 0.0280150214
        },
        "feet": {
            "estimated_diameter_min": 66.1515504905,
            "estimated_diameter_max": 147.9193637137
        }
    },
    "is_potentially_hazardous_asteroid": false,
    "close_approach_data": [
        {
            "close_approach_date": "2017-08-28",
            "close_approach_date_full": "2017-Aug-28 15:41",
            "epoch_date_close_approach": 1503934860000,
            "relative_velocity": {
                "kilometers_per_second": "9.7504104555",
                "kilometers_per_hour": "35101.477639708",
                "miles_per_hour": "21810.6931478508"
            },
            "miss_distance": {
                "astronomical": "0.0537403864",
                "lunar": "20.9050103096",
                "kilometers": "8039447.338416968",
                "miles": "4995480.9325634384"
            },
            "orbiting_body": "Earth"
        }
    ],
    "orbital_data": {
        "orbit_id": "1",
        "orbit_determination_date": "2017-09-01 07:42:04",
        "first_observation_date": "2017-08-30",
        "last_observation_date": "2017-09-01",
        "data_arc_in_days": 2,
        "observations_used": 28,
        "orbit_uncertainty": "8",
        "minimum_orbit_intersection": ".0537418",
        "jupiter_tisserand_invariant": "4.425",
        "epoch_osculation": "2457996.5",
        "eccentricity": ".3125929031690052",
        "semi_major_axis": "1.51196459579841",
        "inclination": "16.15995313004024",
        "ascending_node_longitude": "332.1852820914548",
        "orbital_period": "679.0642381297896",
        "perihelion_distance": "1.039335193309034",
        "perihelion_argument": "27.26917228921817",
        "aphelion_distance": "1.984593998287787",
        "perihelion_time": "2458017.002492299605",
        "mean_anomaly": "349.1307820182292",
        "mean_motion": ".5301413029663817",
        "equinox": "J2000",
        "orbit_class": {
            "orbit_class_type": "AMO",
            "orbit_class_description": "Near-Earth asteroid orbits similar to that of 1221 Amor",
            "orbit_class_range": "1.017 AU < q (perihelion) < 1.3 AU"
        }
    },
    "is_sentry_object": false
}